{
  "norad_id": 63771,
  "name": "STARLINK-33841",
  "history": [
    {
      "epoch": "2026-03-28T21:03:38.742336Z",
      "apogee_km": 483.81536670186233,
      "perigee_km": 482.257331457753,
      "latitude_deg": -4.6115281985602953e-05,
      "longitude_deg": 154.53225375613252,
      "height_km": 482.91520228490526,
      "semi_major_axis_km": 6861.173349079807,
      "eccentricity": 0.00011354,
      "inclination_deg": 43.0025,
      "raan_deg": 296.7354,
      "arg_perigee_deg": 262.4679,
      "mean_anomaly_deg": 97.6043,
      "mean_motion_rev_day": 15.27584257
    }
  ]
}