{"fetched_at":"2026-03-29T16:36:15Z","count":15609,"tles":[{"name":"STARLINK-33841","line1":"1 63771U 25089W   26087.87753174  .00025954  00000+0  94923-3 0  9997","line2":"2 63771  43.0025 296.7354 0001135 262.4679  97.6043 15.27584257 51845","category":"Starlink"}]}